#aV2006  5 31  0  0   .00000000      96 DD+AD WGS84 FIT  NGA
## 1377 259200.00000000   900.00000000 53886  .0000000000000
+   29     1  2  3  4  5  6  7  8  9 10 11 13 14 15 16 17 18
+         19 20 21 22 23 24 25 26 27 28 29 30  0  0  0  0  0
+          0  0  0  0  0  0  0  0  0  0  0  0  0  0  0  0  0
+          0  0  0  0  0  0  0  0  0  0  0  0  0  0  0  0  0
+          0  0  0  0  0  0  0  0  0  0  0  0  0  0  0  0  0
++         0  0  0  0  0  0  0  0  0  0  0  0  0  0  0  0  0
++         0  0  0  0  0  0  0  0  0  0  0  0  0  0  0  0  0
++         0  0  0  0  0  0  0  0  0  0  0  0  0  0  0  0  0
++         0  0  0  0  0  0  0  0  0  0  0  0  0  0  0  0  0
++         0  0  0  0  0  0  0  0  0  0  0  0  0  0  0  0  0
%c cc cc ccc ccc cccc cccc cccc cccc ccccc ccccc ccccc ccccc
%c cc cc ccc ccc cccc cccc cccc cccc ccccc ccccc ccccc ccccc
%f  0.0000000  0.000000000  0.00000000000  0.000000000000000
%f  0.0000000  0.000000000  0.00000000000  0.000000000000000
%i    0    0    0    0      0      0      0      0         0
%i    0    0    0    0      0      0      0      0         0
/*      NGA, ST. LOUIS,MO.                                  
/*   EPHEMERIS COMPUTED FROM  3 DAYS OF DATA                
/* CCCCCCCCCCCCCCCCCCCCCCCCCCCCCCCCCCCCCCCCCCCCCCCCCCCCCCCCC
/* CCCCCCCCCCCCCCCCCCCCCCCCCCCCCCCCCCCCCCCCCCCCCCCCCCCCCCCCC
*  2006  5 31 16  0   .00000000                                                 
P  1 -15064.360323  -1501.881350 -21635.938445     56.409581                    
V  1  -6301.125138 -27132.886758   6168.821071       .024473                    
P  2  21360.580458  -8519.571643 -13364.096708      1.269787                    
V  2  -9667.522401  13797.019708 -24935.489692       .028980                    
P  3 -15177.175329   4777.223139  21109.908664    103.057610                    
V  3  -9936.484034 -25452.246279  -1065.352283       .030952                    
P  4  17911.330266   1929.992598 -19662.137194    243.204983                    
V  4 -16698.106892  18396.299802 -13085.178252       .087713                    
P  5   7728.248027 -14431.197096 -21088.991786     68.100237                    
V  5  25980.124641   4967.138830   6348.845584       .481955                    
P  6  -6266.858392 -25613.141299  -2640.213567    547.233880                    
V  6   4661.745169   2277.854026 -30946.584003       .145752                    
P  7 -16986.757513 -13452.060979  15617.869055    539.862322                    
V  7  -4117.363116 -19067.616328 -21499.129255       .015772                    
P  8  11431.918364   9615.084320  21831.990752    -67.463972                    
V  8 -20250.494078  19353.847885   1673.187760      -.012263                    
P  9  14379.103188 -21646.512448  -5232.282850     22.471407                    
V  9   6162.441848  -2554.702705  31017.157382       .015588                    
P 10  23558.121573  -2276.468015  12262.478136     84.280662                    
V 10  14579.978831   5807.685043 -26417.311519       .006606                    
P 11 -11542.896319  23236.615648  -5105.491346    330.525232                    
V 11  -7725.158962   2505.386165  29505.905934       .023170                    
P 13   5129.480917  25985.601793  -2476.736956     65.921730                    
V 13  -2460.478771  -2475.716097 -32189.248911       .028409                    
P 14 -14567.605707 -16844.188213 -14449.208530    -12.922685                    
V 14  -3438.294797 -18130.240732  24440.029268       .007496                    
P 15 -11629.565031  -9970.702780  21559.909160    621.320015                    
V 15  20635.991349 -18539.061860   2137.042172       .060371                    
P 16 -25545.415106  -1171.533589   7474.365221     46.415211                    
V 16  -8426.660132  -4755.590174 -29790.639840       .025047                    
P 17  14807.933528  17611.770818 -13357.986761     96.177009                    
V 17   2590.536963  16856.812136  25014.067556       .021386                    
P 18 -11645.104807 -16352.202441  17643.552545   -237.542259                    
V 18  21630.273008   4772.604525  18502.073123      -.015278                    
P 19  -9686.233922  16432.954835  18570.001099     -7.956603                    
V 19  -6611.533979 -22480.051810  16588.454603       .020440                    
P 20  -5167.367918  14504.691535 -21735.958177    -26.068667                    
V 20 -26605.003910  -6499.647683   2025.559263       .005382                    
P 21  -3920.054472 -16628.253089  20265.469231     32.459029                    
V 21  19517.983388 -16928.982954 -10677.516345       .025417                    
P 22 -22419.533493 -12259.302625   7422.274326    101.761974                    
V 22   9637.317064      8.138419  29719.617643       .039726                    
P 23  -2727.817012  22912.533795 -13107.146691    140.427525                    
V 23  -6681.332789 -15276.330844 -25656.798400      -.007424                    
P 24   9521.442378  11772.693943 -21583.081494      9.978889                    
V 24 -20558.014678  18968.901785   1521.595536       .027073                    
P 25 -19307.003355   4512.687248 -17340.103300    179.075885                    
V 25  12770.477454 -18943.262998 -18588.424257       .833314                    
P 26  10211.843395 -13166.673024  20127.364955   -132.127940                    
V 26   7782.025432  25402.466247  12996.567011      -.118815                    
P 27   3838.104062  17382.462625  20214.639066     51.300063                    
V 27 -16755.898996  17859.396668 -12879.736061       .016959                    
P 28  20428.448199  13457.432098  11052.535408     26.234026                    
V 28 -13576.949825  -1420.568179  27210.136990      -.007905                    
P 29  12025.039896  -9883.025931  21710.200715    613.236749                    
V 29   8241.539338  25709.357386   7488.489964       .054452                    
P 30  -5393.742695 -16328.026143 -20551.719255    268.638467                    
V 30  25155.822264   4280.016490 -10023.465605       .118552                    
EOF
